STARLINK-3570           
1 51882U 22022AG  26068.18941469 -.00000012  00000+0  17345-4 0  9993
2 51882  53.2211   1.3804 0001875  91.5099 268.6108 15.08832143223227
LEMUR-2-SIERRINI        
1 60579U 24149DR  26068.80891719  .00014386  00000+0  92040-3 0  9991
2 60579  97.6873 151.1225 0006580 147.8458 212.3173 15.08682764 85461
